EROS C3                 
1 54880U 22179A   26194.26375242  .00003021  00000+0  16329-3 0  9998
2 54880 139.3345 153.8620 0006993 166.7626 193.3366 15.11023714196272
