{"fetched_at":"2026-07-13T18:16:49.708Z","source":"https://celestrak.org/NORAD/elements/gp.php?NAME=EROS&FORMAT=JSON","constellation":"eros","records":[{"OBJECT_NAME":"EROS C3","OBJECT_ID":"2022-179A","EPOCH":"2026-07-13T06:19:48.209088","CLASSIFICATION_TYPE":"U","MEAN_MOTION":15.11023714,"ECCENTRICITY":0.00069932,"INCLINATION":139.3345,"RA_OF_ASC_NODE":153.862,"ARG_OF_PERICENTER":166.7626,"MEAN_ANOMALY":193.3366,"EPHEMERIS_TYPE":0,"NORAD_CAT_ID":54880,"ELEMENT_SET_NO":999,"REV_AT_EPOCH":19627,"BSTAR":0.00016328733,"MEAN_MOTION_DOT":0.00003021,"MEAN_MOTION_DDOT":0}]}
